NORAD_CAT_ID,OBJECT_NAME,OBJECT_TYPE,EPOCH,MEAN_MOTION,ECCENTRICITY,INCLINATION,RA_OF_ASC_NODE,ARG_OF_PERICENTER,MEAN_ANOMALY,BSTAR,MEAN_MOTION_DOT,MEAN_MOTION_DDOT,TLE_LINE0,TLE_LINE1,TLE_LINE2,SEMIMAJOR_AXIS,PERIOD,APOGEE,PERIGEE,DECAYED
54061.0,STARLINK-5209,PAYLOAD,2024-02-21 17:25:49,15.08842982,0.0001682,53.218,61.972,99.8692,260.249,-5.5933e-05,-1.178e-05,0.0,0 STARLINK-5209,1 54061U 22136L   24052.72627235 -.00001178  00000-0 -55933-4 0  9995,2 54061  53.2180  61.9720 0001682  99.8692 260.2490 15.08842982 74575,6917.871,95.437,540.9,538.573,0.0
54061.0,STARLINK-5209,PAYLOAD,2024-02-22 04:33:32,15.08831848,0.0001759,53.2181,59.8906,106.0457,254.0729,9.7714e-05,1.267e-05,0.0,0 STARLINK-5209,1 54061U 22136L   24053.18995847  .00001267  00000-0  97714-4 0  9993,2 54061  53.2181  59.8906 0001759 106.0457 254.0729 15.08831848 75120,6917.905,95.438,540.987,538.553,0.0
54061.0,STARLINK-5209,PAYLOAD,2024-02-22 09:19:41,15.088375,0.0001731,53.2183,58.9983,103.7039,256.4146,7.5399e-05,9.12e-06,0.0,0 STARLINK-5209,1 54061U 22136L   24053.38867666  .00000912  00000-0  75399-4 0  9993,2 54061  53.2183  58.9983 0001731 103.7039 256.4146 15.08837500 74676,6917.888,95.438,540.951,538.556,0.0
54061.0,STARLINK-5209,PAYLOAD,2024-02-22 17:16:37,15.08838476,0.0001629,53.2181,57.509,91.2921,268.8258,0.00011445,1.534e-05,0.0,0 STARLINK-5209,1 54061U 22136L   24053.71987641  .00001534  00000-0  11445-3 0  9998,2 54061  53.2181  57.5090 0001629  91.2921 268.8258 15.08838476 74725,6917.885,95.438,540.877,538.623,0.0
54061.0,STARLINK-5209,PAYLOAD,2024-02-23 04:24:20,15.08826894,0.0001802,53.2188,55.428,92.105,268.0148,6.6291e-05,7.67e-06,0.0,0 STARLINK-5209,1 54061U 22136L   24054.18356786  .00000767  00000-0  66291-4 0  9997,2 54061  53.2188  55.4280 0001802  92.1050 268.0148 15.08826894 75278,6917.92,95.438,541.032,538.539,0.0
54061.0,STARLINK-5209,PAYLOAD,2024-02-23 07:35:07,15.08820766,0.0001686,53.2183,54.8328,87.4205,272.698,-0.00010117,-1.897e-05,0.0,0 STARLINK-5209,1 54061U 22136L   24054.31605659 -.00001897  00000-0 -10117-3 0  9990,2 54061  53.2183  54.8328 0001686  87.4205 272.6980 15.08820766 75297,6917.939,95.439,540.971,538.638,0.0
54061.0,STARLINK-5209,PAYLOAD,2024-02-23 17:07:25,15.08826701,0.0001623,53.2185,53.0482,94.5615,265.5563,-2.9357e-05,-7.55e-06,0.0,0 STARLINK-5209,1 54061U 22136L   24054.71349404 -.00000755  00000-0 -29357-4 0  9996,2 54061  53.2185  53.0482 0001623  94.5615 265.5563 15.08826701 75356,6917.921,95.438,540.909,538.663,0.0
54061.0,STARLINK-5209,PAYLOAD,2024-02-24 04:15:07,15.08835886,0.000157,53.2181,50.9679,92.3456,267.7716,8.2159e-05,1.02e-05,0.0,0 STARLINK-5209,1 54061U 22136L   24055.17716834  .00001020  00000-0  82159-4 0  9995,2 54061  53.2181  50.9679 0001570  92.3456 267.7716 15.08835886 75422,6917.893,95.438,540.844,538.672,0.0
54061.0,STARLINK-5209,PAYLOAD,2024-02-24 09:01:16,15.0884704,0.0001576,53.2179,50.0747,94.051,266.0662,0.00013958,1.935e-05,0.0,0 STARLINK-5209,1 54061U 22136L   24055.37588211  .00001935  00000-0  13958-3 0  9998,2 54061  53.2179  50.0747 0001576  94.0510 266.0662 15.08847040 75452,6917.859,95.437,540.814,538.634,0.0
54061.0,STARLINK-5209,PAYLOAD,2024-02-24 16:58:11,15.0884774,0.0001605,53.2179,48.5878,92.5171,267.6004,0.00014745,2.06e-05,0.0,0 STARLINK-5209,1 54061U 22136L   24055.70708253  .00002060  00000-0  14745-3 0  9990,2 54061  53.2179  48.5878 0001605  92.5171 267.6004 15.08847740 75025,6917.857,95.437,540.832,538.611,0.0
54061.0,STARLINK-5209,PAYLOAD,2024-02-25 05:41:17,15.08853796,0.0001645,53.2163,46.2089,99.4669,260.6509,0.00061929,9.585e-05,0.0,0 STARLINK-5209,1 54061U 22136L   24056.23700302  .00009585  00000-0  61929-3 0  9991,2 54061  53.2163  46.2089 0001645  99.4669 260.6509 15.08853796 75109,6917.838,95.437,540.841,538.565,0.0
54061.0,STARLINK-5209,PAYLOAD,2024-02-25 16:48:58,15.08854149,0.0001786,53.2164,44.1299,83.8143,276.3052,0.00037862,5.745e-05,0.0,0 STARLINK-5209,1 54061U 22136L   24056.70068204  .00005745  00000-0  37862-3 0  9994,2 54061  53.2164  44.1299 0001786  83.8143 276.3052 15.08854149 75650,6917.837,95.437,540.938,538.467,0.0
54061.0,STARLINK-5209,PAYLOAD,2024-02-26 05:32:03,15.08854845,0.0001821,53.2175,41.7469,100.1394,259.9803,0.00013567,1.873e-05,0.0,0 STARLINK-5209,1 54061U 22136L   24057.23059538  .00001873  00000-0  13567-3 0  9997,2 54061  53.2175  41.7469 0001821 100.1394 259.9803 15.08854845 75255,6917.835,95.437,540.96,538.44,0.0
54061.0,STARLINK-5209,PAYLOAD,2024-02-26 23:01:18,15.08846062,0.0001548,53.2168,38.481,94.7427,265.3742,-3.5047e-05,-8.46e-06,0.0,0 STARLINK-5209,1 54061U 22136L   24057.95923734 -.00000846  00000-0 -35047-4 0  9993,2 54061  53.2168  38.4810 0001548  94.7427 265.3742 15.08846062 75368,6917.862,95.437,540.798,538.656,0.0
54061.0,STARLINK-5209,PAYLOAD,2024-02-27 03:47:27,15.08839654,0.0001518,53.2194,37.5849,97.3193,262.7971,2.1341e-05,5.2e-07,0.0,0 STARLINK-5209,1 54061U 22136L   24058.15795940  .00000052  00000-0  21341-4 0  9991,2 54061  53.2194  37.5849 0001518  97.3193 262.7971 15.08839654 75875,6917.881,95.438,540.797,538.696,0.0
54061.0,STARLINK-5209,PAYLOAD,2024-02-27 08:33:37,15.08843805,0.0001807,53.2187,36.6911,102.9974,257.122,-1.0029e-05,-4.48e-06,0.0,0 STARLINK-5209,1 54061U 22136L   24058.35667838 -.00000448  00000-0 -10029-4 0  9999,2 54061  53.2187  36.6911 0001807 102.9974 257.1220 15.08843805 75427,6917.869,95.437,540.984,538.484,0.0
54061.0,STARLINK-5209,PAYLOAD,2024-02-27 22:52:05,15.0883441,0.0001697,53.2196,34.0156,99.7835,260.3349,-1.228e-05,-4.83e-06,0.0,0 STARLINK-5209,1 54061U 22136L   24058.95284394 -.00000483  00000-0 -12280-4 0  9997,2 54061  53.2196  34.0156 0001697  99.7835 260.3349 15.08834410 75516,6917.897,95.438,540.936,538.589,0.0
54061.0,STARLINK-5209,PAYLOAD,2024-02-28 05:13:38,15.08837533,0.0001592,53.2195,32.8305,94.0893,266.0281,4.7821e-05,4.73e-06,0.0,0 STARLINK-5209,1 54061U 22136L   24059.21780112  .00000473  00000-0  47821-4 0  9992,2 54061  53.2195  32.8305 0001592  94.0893 266.0281 15.08837533 76038,6917.888,95.438,540.854,538.652,0.0
54061.0,STARLINK-5209,PAYLOAD,2024-02-28 14:45:56,15.0884083,0.0001602,53.2191,31.0469,103.4334,256.6837,-3.5491e-05,-8.53e-06,0.0,0 STARLINK-5209,1 54061U 22136L   24059.61524061 -.00000853  00000-0 -35491-4 0  9999,2 54061  53.2191  31.0469 0001602 103.4334 256.6837 15.08840830 75612,6917.878,95.438,540.851,538.635,0.0
54061.0,STARLINK-5209,PAYLOAD,2024-02-28 22:42:52,15.0883085,0.0001773,53.2192,29.5586,110.1937,249.9246,4.8447e-05,4.83e-06,0.0,0 STARLINK-5209,1 54061U 22136L   24059.94644642  .00000483  00000-0  48447-4 0  9995,2 54061  53.2192  29.5586 0001773 110.1937 249.9246 15.08830850 75663,6917.908,95.438,541.0,538.547,0.0
54061.0,STARLINK-5209,PAYLOAD,2024-02-29 14:36:44,15.08838905,0.0001699,53.2196,26.5853,106.0945,254.0234,5.6053e-05,6.04e-06,0.0,0 STARLINK-5209,1 54061U 22136L   24060.60884382  .00000604  00000-0  56053-4 0  9994,2 54061  53.2196  26.5853 0001699 106.0945 254.0234 15.08838905 75765,6917.884,95.438,540.924,538.573,0.0
54061.0,STARLINK-5209,PAYLOAD,2024-03-01 03:19:48,15.08850066,0.0001932,53.2196,24.2073,95.5779,264.5433,0.00016683,2.369e-05,0.0,0 STARLINK-5209,1 54061U 22136L   24061.13875527  .00002369  00000-0  16683-3 0  9998,2 54061  53.2196  24.2073 0001932  95.5779 264.5433 15.08850066 76323,6917.85,95.437,541.051,538.378,0.0
54061.0,STARLINK-5209,PAYLOAD,2024-03-01 06:30:32,15.08872249,0.0001728,53.219,23.612,105.3019,254.8165,0.00034491,5.21e-05,0.0,0 STARLINK-5209,1 54061U 22136L   24061.27121409  .00005210  00000-0  34491-3 0  9991,2 54061  53.2190  23.6120 0001728 105.3019 254.8165 15.08872249 75862,6917.782,95.436,540.842,538.451,0.0
54061.0,STARLINK-5209,PAYLOAD,2024-03-01 14:27:29,15.08851361,0.0001827,53.2196,22.125,88.4707,271.6495,0.00014896,2.084e-05,0.0,0 STARLINK-5209,1 54061U 22136L   24061.60243048  .00002084  00000-0  14896-3 0  9995,2 54061  53.2196  22.1250 0001827  88.4707 271.6495 15.08851361 76395,6917.846,95.437,540.975,538.447,0.0
54061.0,STARLINK-5209,PAYLOAD,2024-03-02 03:10:36,15.08837253,0.0001435,53.218,19.743,87.2496,272.8661,-7.7086e-06,-4.11e-06,0.0,0 STARLINK-5209,1 54061U 22136L   24062.13236268 -.00000411  00000-0 -77086-5 0  9996,2 54061  53.2180  19.7430 0001435  87.2496 272.8661 15.08837253 76478,6917.889,95.438,540.747,538.761,0.0
54061.0,STARLINK-5209,PAYLOAD,2024-03-02 04:45:59,15.08840247,0.0001501,53.2187,19.4465,87.5074,272.609,2.2344e-05,6.8e-07,0.0,0 STARLINK-5209,1 54061U 22136L   24062.19860077  .00000068  00000-0  22344-4 0  9995,2 54061  53.2187  19.4465 0001501  87.5074 272.6090 15.08840247 76009,6917.88,95.438,540.783,538.706,0.0
54061.0,STARLINK-5209,PAYLOAD,2024-03-03 03:01:23,15.08840256,0.0001459,53.2183,15.2837,96.5931,263.5227,-3.7862e-05,-8.9e-06,0.0,0 STARLINK-5209,1 54061U 22136L   24063.12596090 -.00000890  00000-0 -37862-4 0  9996,2 54061  53.2183  15.2837 0001459  96.5931 263.5227 15.08840256 76142,6917.88,95.438,540.754,538.735,0.0
54061.0,STARLINK-5209,PAYLOAD,2024-03-03 20:30:37,15.08829951,0.0001131,53.2176,12.0144,97.1836,262.9285,0.00011602,1.559e-05,0.0,0 STARLINK-5209,1 54061U 22136L   24063.85460175  .00001559  00000-0  11602-3 0  9994,2 54061  53.2176  12.0144 0001131  97.1836 262.9285 15.08829951 76256,6917.911,95.438,540.559,538.994,0.0
54061.0,STARLINK-5209,PAYLOAD,2024-03-04 02:52:09,15.08843951,0.0001629,53.2189,10.8268,113.4473,246.669,9.7353e-05,1.262e-05,0.0,0 STARLINK-5209,1 54061U 22136L   24064.11955531  .00001262  00000-0  97353-4 0  9998,2 54061  53.2189  10.8268 0001629 113.4473 246.6690 15.08843951 76776,6917.868,95.437,540.86,538.606,0.0
54061.0,STARLINK-5209,PAYLOAD,2024-03-04 06:02:55,15.08849478,0.0001754,53.2189,10.2258,116.9445,243.1727,0.00024262,3.576e-05,0.0,0 STARLINK-5209,1 54061U 22136L   24064.25203362  .00003576  00000-0  24262-3 0  9999,2 54061  53.2189  10.2258 0001754 116.9445 243.1727 15.08849478 76318,6917.851,95.437,540.93,538.503,0.0
